COSMOS 2058             
1 20465U 90010A   26078.91022850  .00003727  00000+0  21894-3 0  9992
2 20465  82.4675  37.3561 0007990 308.0195  52.0313 15.11407420943787
SL-14 R/B               
1 20466U 90010B   26078.93875038  .00000402  00000+0  45896-4 0  9995
2 20466  82.4987 257.7584 0018328 265.8820  94.0300 14.83577812930003
SL-14 R/B               
1 20511U 90018B   26078.83140945  .00000424  00000+0  50161-4 0  9990
2 20511  82.5221 213.6111 0017456  61.3004 298.9962 14.82155178924083
HST                     
1 20580U 90037B   26078.40349189  .00006100  00000+0  19870-3 0  9999
2 20580  28.4724 333.7287 0001561 229.7160 130.3300 15.29630302774804
SL-16 R/B               
1 20625U 90046B   26078.94751401  .00000070  00000+0  60577-4 0  9993
2 20625  70.9954 276.3693 0016206 286.0224  73.9113 14.15012000849847
COSMOS 2084             
1 20663U 90055A   26078.94958253  .00001851  00000+0  14103-3 0  9990
2 20663  62.7890 300.5840 0015515 192.8533 167.2175 15.05704081937862
SL-6 R/B(2)             
1 20666U 90055D   26078.81327359  .00001810  00000+0  14531-3 0  9996
2 20666  62.7827 219.4212 0026453 349.4230  10.6310 15.03641990939718
SL-8 R/B                
1 20775U 90078B   26078.92256924  .00012083  00000+0  35689-3 0  9994
2 20775  82.9005 242.1036 0360154 339.5399  19.1689 14.89371589810823
SL-8 R/B                
1 21088U 91006B   26078.74104724  .00000083  00000+0  67550-4 0  9994
2 21088  82.9458 162.5736 0022460  10.8624 150.5114 13.77495540765451
OKEAN-3                 
1 21397U 91039A   26078.78607958  .00001839  00000+0  12794-3 0  9993
2 21397  82.5190 327.0636 0012899 299.3062  60.6876 15.04870089866551
COSMOS 2151             
1 21422U 91042A   26078.95556981  .00001707  00000+0  13443-3 0  9990
2 21422  82.4933  73.7701 0013303  32.0777 328.1254 15.00146106864730
SL-14 R/B               
1 21423U 91042B   26078.88657955  .00000431  00000+0  51488-4 0  9991
2 21423  82.4941 210.6213 0016448 203.1124 156.9352 14.81839825854583
