CCSDS_OMM_VERS = 2.0
CREATION_DATE  = 
ORIGINATOR     = 

OBJECT_NAME    = COSMOS 2058
OBJECT_ID      = 1990-010A
CENTER_NAME    = EARTH
REF_FRAME      = TEME
TIME_SYSTEM    = UTC
MEAN_ELEMENT_THEORY = SGP/SGP4

EPOCH          = 2026-03-19T21:50:43.742400
MEAN_MOTION    = 15.11407420
ECCENTRICITY   = .00079906
INCLINATION    = 82.4675
RA_OF_ASC_NODE = 37.3561
ARG_OF_PERICENTER = 308.0195
MEAN_ANOMALY   = 52.0313

EPHEMERIS_TYPE = 0
CLASSIFICATION_TYPE = U
NORAD_CAT_ID   = 20465
ELEMENT_SET_NO = 999
REV_AT_EPOCH   = 94378
BSTAR          = .21893948E-3
MEAN_MOTION_DOT = .3727E-4
MEAN_MOTION_DDOT = 0

CCSDS_OMM_VERS = 2.0
CREATION_DATE  = 
ORIGINATOR     = 

OBJECT_NAME    = SL-14 R/B
OBJECT_ID      = 1990-010B
CENTER_NAME    = EARTH
REF_FRAME      = TEME
TIME_SYSTEM    = UTC
MEAN_ELEMENT_THEORY = SGP/SGP4

EPOCH          = 2026-03-19T22:31:48.032832
MEAN_MOTION    = 14.83577812
ECCENTRICITY   = .00183282
INCLINATION    = 82.4987
RA_OF_ASC_NODE = 257.7584
ARG_OF_PERICENTER = 265.8820
MEAN_ANOMALY   = 94.0300

EPHEMERIS_TYPE = 0
CLASSIFICATION_TYPE = U
NORAD_CAT_ID   = 20466
ELEMENT_SET_NO = 999
REV_AT_EPOCH   = 93000
BSTAR          = .45895509E-4
MEAN_MOTION_DOT = .402E-5
MEAN_MOTION_DDOT = 0

CCSDS_OMM_VERS = 2.0
CREATION_DATE  = 
ORIGINATOR     = 

OBJECT_NAME    = SL-14 R/B
OBJECT_ID      = 1990-018B
CENTER_NAME    = EARTH
REF_FRAME      = TEME
TIME_SYSTEM    = UTC
MEAN_ELEMENT_THEORY = SGP/SGP4

EPOCH          = 2026-03-19T19:57:13.776480
MEAN_MOTION    = 14.82155178
ECCENTRICITY   = .0017456
INCLINATION    = 82.5221
RA_OF_ASC_NODE = 213.6111
ARG_OF_PERICENTER = 61.3004
MEAN_ANOMALY   = 298.9962

EPHEMERIS_TYPE = 0
CLASSIFICATION_TYPE = U
NORAD_CAT_ID   = 20511
ELEMENT_SET_NO = 999
REV_AT_EPOCH   = 92408
BSTAR          = .50160676E-4
MEAN_MOTION_DOT = .424E-5
MEAN_MOTION_DDOT = 0

CCSDS_OMM_VERS = 2.0
CREATION_DATE  = 
ORIGINATOR     = 

OBJECT_NAME    = HST
OBJECT_ID      = 1990-037B
CENTER_NAME    = EARTH
REF_FRAME      = TEME
TIME_SYSTEM    = UTC
MEAN_ELEMENT_THEORY = SGP/SGP4

EPOCH          = 2026-03-19T09:41:01.699296
MEAN_MOTION    = 15.29630302
ECCENTRICITY   = .00015616
INCLINATION    = 28.4724
RA_OF_ASC_NODE = 333.7287
ARG_OF_PERICENTER = 229.7160
MEAN_ANOMALY   = 130.3300

EPHEMERIS_TYPE = 0
CLASSIFICATION_TYPE = U
NORAD_CAT_ID   = 20580
ELEMENT_SET_NO = 999
REV_AT_EPOCH   = 77480
BSTAR          = .19869521E-3
MEAN_MOTION_DOT = .61E-4
MEAN_MOTION_DDOT = 0

CCSDS_OMM_VERS = 2.0
CREATION_DATE  = 
ORIGINATOR     = 

OBJECT_NAME    = SL-16 R/B
OBJECT_ID      = 1990-046B
CENTER_NAME    = EARTH
REF_FRAME      = TEME
TIME_SYSTEM    = UTC
MEAN_ELEMENT_THEORY = SGP/SGP4

EPOCH          = 2026-03-19T22:44:25.210464
MEAN_MOTION    = 14.15012000
ECCENTRICITY   = .00162069
INCLINATION    = 70.9954
RA_OF_ASC_NODE = 276.3693
ARG_OF_PERICENTER = 286.0224
MEAN_ANOMALY   = 73.9113

EPHEMERIS_TYPE = 0
CLASSIFICATION_TYPE = U
NORAD_CAT_ID   = 20625
ELEMENT_SET_NO = 999
REV_AT_EPOCH   = 84984
BSTAR          = .60576851E-4
MEAN_MOTION_DOT = .7E-6
MEAN_MOTION_DDOT = 0

CCSDS_OMM_VERS = 2.0
CREATION_DATE  = 
ORIGINATOR     = 

OBJECT_NAME    = COSMOS 2084
OBJECT_ID      = 1990-055A
CENTER_NAME    = EARTH
REF_FRAME      = TEME
TIME_SYSTEM    = UTC
MEAN_ELEMENT_THEORY = SGP/SGP4

EPOCH          = 2026-03-19T22:47:23.930592
MEAN_MOTION    = 15.05704081
ECCENTRICITY   = .00155151
INCLINATION    = 62.7890
RA_OF_ASC_NODE = 300.5840
ARG_OF_PERICENTER = 192.8533
MEAN_ANOMALY   = 167.2175

EPHEMERIS_TYPE = 0
CLASSIFICATION_TYPE = U
NORAD_CAT_ID   = 20663
ELEMENT_SET_NO = 999
REV_AT_EPOCH   = 93786
BSTAR          = .14103379E-3
MEAN_MOTION_DOT = .1851E-4
MEAN_MOTION_DDOT = 0

CCSDS_OMM_VERS = 2.0
CREATION_DATE  = 
ORIGINATOR     = 

OBJECT_NAME    = SL-6 R/B(2)
OBJECT_ID      = 1990-055D
CENTER_NAME    = EARTH
REF_FRAME      = TEME
TIME_SYSTEM    = UTC
MEAN_ELEMENT_THEORY = SGP/SGP4

EPOCH          = 2026-03-19T19:31:06.838176
MEAN_MOTION    = 15.03641990
ECCENTRICITY   = .00264532
INCLINATION    = 62.7827
RA_OF_ASC_NODE = 219.4212
ARG_OF_PERICENTER = 349.4230
MEAN_ANOMALY   = 10.6310

EPHEMERIS_TYPE = 0
CLASSIFICATION_TYPE = U
NORAD_CAT_ID   = 20666
ELEMENT_SET_NO = 999
REV_AT_EPOCH   = 93971
BSTAR          = .14531485E-3
MEAN_MOTION_DOT = .181E-4
MEAN_MOTION_DDOT = 0

CCSDS_OMM_VERS = 2.0
CREATION_DATE  = 
ORIGINATOR     = 

OBJECT_NAME    = SL-8 R/B
OBJECT_ID      = 1990-078B
CENTER_NAME    = EARTH
REF_FRAME      = TEME
TIME_SYSTEM    = UTC
MEAN_ELEMENT_THEORY = SGP/SGP4

EPOCH          = 2026-03-19T22:08:29.982336
MEAN_MOTION    = 14.89371589
ECCENTRICITY   = .03601545
INCLINATION    = 82.9005
RA_OF_ASC_NODE = 242.1036
ARG_OF_PERICENTER = 339.5399
MEAN_ANOMALY   = 19.1689

EPHEMERIS_TYPE = 0
CLASSIFICATION_TYPE = U
NORAD_CAT_ID   = 20775
ELEMENT_SET_NO = 999
REV_AT_EPOCH   = 81082
BSTAR          = .35689171E-3
MEAN_MOTION_DOT = .12083E-3
MEAN_MOTION_DDOT = 0

CCSDS_OMM_VERS = 2.0
CREATION_DATE  = 
ORIGINATOR     = 

OBJECT_NAME    = SL-8 R/B
OBJECT_ID      = 1991-006B
CENTER_NAME    = EARTH
REF_FRAME      = TEME
TIME_SYSTEM    = UTC
MEAN_ELEMENT_THEORY = SGP/SGP4

EPOCH          = 2026-03-19T17:47:06.481536
MEAN_MOTION    = 13.77495540
ECCENTRICITY   = .002246
INCLINATION    = 82.9458
RA_OF_ASC_NODE = 162.5736
ARG_OF_PERICENTER = 10.8624
MEAN_ANOMALY   = 150.5114

EPHEMERIS_TYPE = 0
CLASSIFICATION_TYPE = U
NORAD_CAT_ID   = 21088
ELEMENT_SET_NO = 999
REV_AT_EPOCH   = 76545
BSTAR          = .67550479E-4
MEAN_MOTION_DOT = .83E-6
MEAN_MOTION_DDOT = 0

CCSDS_OMM_VERS = 2.0
CREATION_DATE  = 
ORIGINATOR     = 

OBJECT_NAME    = OKEAN-3
OBJECT_ID      = 1991-039A
CENTER_NAME    = EARTH
REF_FRAME      = TEME
TIME_SYSTEM    = UTC
MEAN_ELEMENT_THEORY = SGP/SGP4

EPOCH          = 2026-03-19T18:51:57.275712
MEAN_MOTION    = 15.04870089
ECCENTRICITY   = .00128996
INCLINATION    = 82.5190
RA_OF_ASC_NODE = 327.0636
ARG_OF_PERICENTER = 299.3062
MEAN_ANOMALY   = 60.6876

EPHEMERIS_TYPE = 0
CLASSIFICATION_TYPE = U
NORAD_CAT_ID   = 21397
ELEMENT_SET_NO = 999
REV_AT_EPOCH   = 86655
BSTAR          = .12794327E-3
MEAN_MOTION_DOT = .1839E-4
MEAN_MOTION_DDOT = 0

CCSDS_OMM_VERS = 2.0
CREATION_DATE  = 
ORIGINATOR     = 

OBJECT_NAME    = COSMOS 2151
OBJECT_ID      = 1991-042A
CENTER_NAME    = EARTH
REF_FRAME      = TEME
TIME_SYSTEM    = UTC
MEAN_ELEMENT_THEORY = SGP/SGP4

EPOCH          = 2026-03-19T22:56:01.231584
MEAN_MOTION    = 15.00146106
ECCENTRICITY   = .00133038
INCLINATION    = 82.4933
RA_OF_ASC_NODE = 73.7701
ARG_OF_PERICENTER = 32.0777
MEAN_ANOMALY   = 328.1254

EPHEMERIS_TYPE = 0
CLASSIFICATION_TYPE = U
NORAD_CAT_ID   = 21422
ELEMENT_SET_NO = 999
REV_AT_EPOCH   = 86473
BSTAR          = .13443159E-3
MEAN_MOTION_DOT = .1707E-4
MEAN_MOTION_DDOT = 0

CCSDS_OMM_VERS = 2.0
CREATION_DATE  = 
ORIGINATOR     = 

OBJECT_NAME    = SL-14 R/B
OBJECT_ID      = 1991-042B
CENTER_NAME    = EARTH
REF_FRAME      = TEME
TIME_SYSTEM    = UTC
MEAN_ELEMENT_THEORY = SGP/SGP4

EPOCH          = 2026-03-19T21:16:40.473120
MEAN_MOTION    = 14.81839825
ECCENTRICITY   = .00164488
INCLINATION    = 82.4941
RA_OF_ASC_NODE = 210.6213
ARG_OF_PERICENTER = 203.1124
MEAN_ANOMALY   = 156.9352

EPHEMERIS_TYPE = 0
CLASSIFICATION_TYPE = U
NORAD_CAT_ID   = 21423
ELEMENT_SET_NO = 999
REV_AT_EPOCH   = 85458
BSTAR          = .51487937E-4
MEAN_MOTION_DOT = .431E-5
MEAN_MOTION_DDOT = 0

